[{"OBJECT_NAME":"STARLINK-5503","OBJECT_ID":"2023-094AR","EPOCH":"2026-03-09T06:04:47.166816","MEAN_MOTION":15.02537201,"ECCENTRICITY":0.00013551,"INCLINATION":43.0046,"RA_OF_ASC_NODE":19.7489,"ARG_OF_PERICENTER":265.0344,"MEAN_ANOMALY":95.0344,"EPHEMERIS_TYPE":0,"CLASSIFICATION_TYPE":"U","NORAD_CAT_ID":57257,"ELEMENT_SET_NO":999,"REV_AT_EPOCH":14786,"BSTAR":-2.5291791e-5,"MEAN_MOTION_DOT":-5.45e-6,"MEAN_MOTION_DDOT":0},{"OBJECT_NAME":"IUS R\/B(1)","OBJECT_ID":"1988-091C","EPOCH":"2026-03-08T23:30:22.266432","MEAN_MOTION":2.90054358,"ECCENTRICITY":0.6782559,"INCLINATION":26.6616,"RA_OF_ASC_NODE":307.7672,"ARG_OF_PERICENTER":120.4894,"MEAN_ANOMALY":322.5782,"EPHEMERIS_TYPE":0,"CLASSIFICATION_TYPE":"U","NORAD_CAT_ID":19549,"ELEMENT_SET_NO":999,"REV_AT_EPOCH":35355,"BSTAR":0.0017373709,"MEAN_MOTION_DOT":3.056e-5,"MEAN_MOTION_DDOT":0}]
